[{"OBJECT_NAME":"NANOSATC-BR1","OBJECT_ID":"2014-033Q","EPOCH":"2026-03-09T23:35:03.168384","MEAN_MOTION":15.28136801,"ECCENTRICITY":0.00046435,"INCLINATION":98.0845,"RA_OF_ASC_NODE":92.7804,"ARG_OF_PERICENTER":147.6715,"MEAN_ANOMALY":212.4808,"EPHEMERIS_TYPE":0,"CLASSIFICATION_TYPE":"U","NORAD_CAT_ID":40024,"ELEMENT_SET_NO":999,"REV_AT_EPOCH":63881,"BSTAR":0.00074295057,"MEAN_MOTION_DOT":0.00020336,"MEAN_MOTION_DDOT":0},{"OBJECT_NAME":"STARLINK-35643","OBJECT_ID":"2025-262A","EPOCH":"2026-03-09T01:00:24.455808","MEAN_MOTION":15.27628244,"ECCENTRICITY":0.00011095,"INCLINATION":43.001,"RA_OF_ASC_NODE":300.1522,"ARG_OF_PERICENTER":292.2355,"MEAN_ANOMALY":67.8379,"EPHEMERIS_TYPE":0,"CLASSIFICATION_TYPE":"U","NORAD_CAT_ID":66456,"ELEMENT_SET_NO":999,"REV_AT_EPOCH":1880,"BSTAR":0.0019411859,"MEAN_MOTION_DOT":0.00053623,"MEAN_MOTION_DDOT":0}]
